[{"OBJECT_NAME":"STARLINK-32695","OBJECT_ID":"2025-022N","EPOCH":"2026-03-09T13:18:25.922016","MEAN_MOTION":15.30191356,"ECCENTRICITY":0.0001135,"INCLINATION":53.1606,"RA_OF_ASC_NODE":129.9413,"ARG_OF_PERICENTER":100.6636,"MEAN_ANOMALY":259.4492,"EPHEMERIS_TYPE":0,"CLASSIFICATION_TYPE":"U","NORAD_CAT_ID":62866,"ELEMENT_SET_NO":999,"REV_AT_EPOCH":6188,"BSTAR":0.00083824,"MEAN_MOTION_DOT":0.00024542,"MEAN_MOTION_DDOT":0},{"OBJECT_NAME":"OBJECT D","OBJECT_ID":"2021-102D","EPOCH":"2026-03-09T14:47:14.426880","MEAN_MOTION":15.2846442,"ECCENTRICITY":0.0009157,"INCLINATION":97.3342,"RA_OF_ASC_NODE":112.2633,"ARG_OF_PERICENTER":187.6206,"MEAN_ANOMALY":172.4897,"EPHEMERIS_TYPE":0,"CLASSIFICATION_TYPE":"U","NORAD_CAT_ID":49398,"ELEMENT_SET_NO":999,"REV_AT_EPOCH":23880,"BSTAR":0.00046011,"MEAN_MOTION_DOT":0.00012697,"MEAN_MOTION_DDOT":0}]
